satname,norad_id,inclination_deg,eccentricity,mean_motion_rev_per_day,perigee_km,apogee_km,l1,l2
STARLINK-1227,45230,53.0561,0.0001426,15.064245,546.1489259877917,548.1240139814317,1 45230U 20012BE  25270.68137359  .00019018  00000+0  12914-2 0  9994,2 45230  53.0561  18.3909 0001426  73.0917 287.0228 15.06424500310848
STARLINK-1238,45233,53.0364,0.0005363,16.05857141,254.67358461841377,261.79175472610495,1 45233U 20012BH  25270.65781275  .00665796  23007-3  89847-3 0  9992,2 45233  53.0364 341.0417 0005363  10.9086 349.2062 16.05857141311336
STARLINK-1246,45235,53.0558,0.0001165,15.06399909,546.4050337006938,548.0186399796776,1 45235U 20012BK  25270.69611744  .00002624  00000+0  19499-3 0  9996,2 45235  53.0558  58.3240 0001165  86.3911 273.7212 15.06399909310290
STARLINK-1247,45236,53.0379,0.0004325,16.03041146,263.12869354855775,268.875874029035,1 45236U 20012BL  25271.23227885  .00612364  18585-3  98112-3 0  9995,2 45236  53.0379 318.1767 0004325  21.9570 338.1645 16.03041146311719
STARLINK-1270,45237,53.0553,0.000125,15.06412589,546.3073109882835,548.0386384819667,1 45237U 20012BM  25270.56711311  .00009448  00000+0  65207-3 0  9994,2 45237  53.0553  18.9055 0001250  57.0109 303.1000 15.06412589310813
STARLINK-1279,45360,53.0525,0.0001223,15.06402278,546.3576069303972,548.051545479937,1 45360U 20019A   25271.05644576  .00012465  00000+0  85415-3 0  9997,2 45360  53.0525 146.7070 0001223  88.8688 271.2441 15.06402278305621
STARLINK-1301,45361,53.0531,0.0001389,15.06398304,546.2548243021847,548.1786875755861,1 45361U 20019B   25271.11078948 -.00002522  00000+0 -15048-3 0  9999,2 45361  53.0531 156.4644 0001389  91.4133 268.7015 15.06398304305501
STARLINK-1306,45362,53.0497,0.0009979,15.5808776,386.43460962075005,399.9488274772302,1 45362U 20019C   25271.09514772  .00152925  00000+0  19624-2 0  9991,2 45362  53.0497 157.4853 0009979 112.5903 247.6165 15.58087760305486
STARLINK-1262,45366,53.0531,0.0001411,15.06446091,546.0931525133856,548.0474460132373,1 45366U 20019G   25271.00943952  .00022884  00000+0  15482-2 0  9990,2 45366  53.0531 176.9179 0001411  88.6632 271.4518 15.06446091305218
STARLINK-1273,45367,53.0539,0.0001644,15.06418248,546.0171129024993,548.2941491195761,1 45367U 20019H   25270.89886347  .00016889  00000+0  11494-2 0  9998,2 45367  53.0539 177.4174 0001644  97.7551 262.3625 15.06418248305195
STARLINK-1276,45368,53.0535,0.0001291,15.06407018,546.2959891405517,548.0841085845686,1 45368U 20019J   25271.00205565  .00010947  00000+0  75254-3 0  9994,2 45368  53.0535 176.9524 0001291 119.3353 240.7766 15.06407018305216
STARLINK-1277,45369,53.0529,0.0001411,15.06419324,546.1751749696241,548.1294916194793,1 45369U 20019K   25271.06110889  .00022645  00000+0  15335-2 0  9996,2 45369  53.0529 177.3173 0001411  94.2591 265.8559 15.06419324305215
STARLINK-1281,45370,53.0536,0.0001266,15.06391468,546.360954974908,548.1144598508245,1 45370U 20019L   25271.05734521 -.00001944  00000+0 -11165-3 0  9991,2 45370  53.0536 176.7103 0001266 100.7815 259.3316 15.06391468305229
STARLINK-1300,45374,53.0533,0.0001194,15.06383646,546.4347884438148,548.0885736488481,1 45374U 20019Q   25270.15062377  .00022373  00000+0  15168-2 0  9991,2 45374  53.0533 180.7735 0001194  96.8915 263.2210 15.06383646305082
STARLINK-1302,45375,53.0544,0.0001494,15.06417683,546.1227236424675,548.1920015980177,1 45375U 20019R   25271.02786839  .00017284  00000+0  11758-2 0  9991,2 45375  53.0544 176.8376 0001494 111.3574 248.7574 15.06417683305214
STARLINK-1304,45376,53.0536,0.0001381,15.06430775,546.1608609910836,548.0736162117864,1 45376U 20019S   25271.04629090  .00019134  00000+0  12989-2 0  9992,2 45376  53.0536 176.7565 0001381 101.9673 258.1470 15.06430775305212
STARLINK-1305,45377,53.0549,0.0002063,15.06427279,545.6992708340194,548.5566351536254,1 45377U 20019T   25271.00573703  .00012908  00000+0  88323-3 0  9996,2 45377  53.0549 176.9330 0002063 116.0517 244.0684 15.06427279305217
STARLINK-1319,45379,53.0564,0.0001698,15.06381506,546.0923061548092,548.4441737743018,1 45379U 20019V   25271.06473037  .00007935  00000+0  55130-3 0  9997,2 45379  53.0564 176.6729 0001698  81.7298 278.3884 15.06381506305227
STARLINK-1258,45381,53.0387,0.0005758,16.11904512,237.81220056483835,245.43551716990987,1 45381U 20019X   25271.56211972  .00995076  61203-3  91170-3 0  9995,2 45381  53.0387  93.8142 0005758 260.2390  99.7994 16.11904512306414
STARLINK-1266,45383,53.0535,0.0001379,15.06398772,546.2603154988228,548.170327669116,1 45383U 20019Z   25271.00023173  .00009464  00000+0  65338-3 0  9998,2 45383  53.0535 156.9626 0001379  95.0696 265.0450 15.06398772305486
STARLINK-1267,45384,53.0532,0.0001203,15.06408831,546.3513761518707,548.0176085029252,1 45384U 20019AA  25270.91922380  .00010541  00000+0  72534-3 0  9990,2 45384  53.0532 157.9827 0001203  87.7288 272.3839 15.06408831305467
STARLINK-1272,45386,53.0541,0.0001176,15.06413257,546.3565112283413,547.9853436528756,1 45386U 20019AC  25271.05919961  .00004918  00000+0  34866-3 0  9996,2 45386  53.0541 156.6980 0001176  90.7728 269.3396 15.06413257305492
STARLINK-1274,45387,53.0326,0.0007846,15.25114889,485.05137997176735,495.8295517311826,1 45387U 20019AD  25270.88736623  .00061648  00000+0  24214-2 0  9997,2 45387  53.0326 147.6992 0007846  94.5798 265.6095 15.25114889305604
STARLINK-1280,45388,53.053,0.0001277,15.06418993,546.2689881629694,548.0377073177815,1 45388U 20019AE  25271.11633019  .00020933  00000+0  14193-2 0  9997,2 45388  53.0530 176.4418 0001277 102.1933 257.9199 15.06418993305212
STARLINK-1283,45389,53.054,0.0001479,15.06430326,546.0943693698446,548.1428599806659,1 45389U 20019AF  25271.09605412  .00014789  00000+0  10088-2 0  9992,2 45389  53.0540 156.5308 0001479 102.4141 257.7014 15.06430326305509
STARLINK-1284,45390,53.053,0.0001093,15.06416089,546.4053127015986,547.919183117192,1 45390U 20019AG  25271.07026111  .00017112  00000+0  11644-2 0  9997,2 45390  53.0530 156.6475 0001093 107.2554 252.8555 15.06416089305493
STARLINK-1292,45394,53.0488,0.0004779,15.75472916,340.07361269064586,346.4979485843787,1 45394U 20019AL  25271.25003472  .00170633  00000+0  10832-2 0  9992,2 45394  53.0488 124.6407 0004779 179.7806   4.6621 15.75472916  5926
STARLINK-1297,45395,53.0537,0.0001131,15.06416271,546.3784388337408,547.9449413974453,1 45395U 20019AM  25270.97441671  .00008003  00000+0  55529-3 0  9992,2 45395  53.0537 157.0760 0001131 108.8881 251.2231 15.06416271304665
STARLINK-1307,45397,53.0534,0.0001322,15.06406565,546.2759088124822,548.1069656512855,1 45397U 20019AP  25271.09974395  .00017386  00000+0  11830-2 0  9992,2 45397  53.0534 156.5125 0001322  95.8586 264.2554 15.06406565305323
STARLINK-1312,45398,53.0474,0.0008971,15.73973631,341.51980373351125,353.5870374861688,1 45398U 20019AQ  25271.25003472  .00196162  00000+0  13222-2 0  9997,2 45398  53.0474 124.1583 0008971 117.2160 241.1495 15.73973631  5951
STARLINK-1255,45399,53.0533,0.0001285,15.06414095,546.2784573915142,548.058260868811,1 45399U 20019AR  25271.06749736  .00012970  00000+0  88768-3 0  9999,2 45399  53.0533 146.6609 0001285  75.6324 284.4807 15.06414095305440
STARLINK-1259,45403,53.0458,0.0005773,15.86770204,307.4830693406693,315.20674515077553,1 45403U 20019AV  25271.25003472  .00287549  00000+0  10672-2 0  9990,2 45403  53.0458 105.5258 0005773 110.9453 233.4376 15.86770204  6042
STARLINK-1260,45404,53.0524,0.0001207,15.06408605,546.3492985904395,548.0210713658935,1 45404U 20019AW  25271.10067341  .00012614  00000+0  86402-3 0  9994,2 45404  53.0524 146.5105 0001207  85.7064 274.4062 15.06408605305356
STARLINK-1263,45405,53.0532,0.0001111,15.06416082,546.392868614179,547.9316701118314,1 45405U 20019AX  25270.82053326  .00011632  00000+0  79818-3 0  9993,2 45405  53.0532 147.7671 0001111  85.5473 274.5643 15.06416082305313
STARLINK-1265,45406,53.0534,0.0001222,15.06410861,546.3319972114623,548.0245442636306,1 45406U 20019AY  25270.89425708  .00007225  00000+0  50331-3 0  9990,2 45406  53.0534 147.4379 0001222  94.5443 265.5686 15.06410861305325
STARLINK-1278,45408,53.0536,0.0001411,15.06424072,546.1606254360231,548.1149379794206,1 45408U 20019BA  25271.12001307  .00016876  00000+0  11483-2 0  9990,2 45408  53.0536 176.4249 0001411  95.6012 264.5138 15.06424072304948
STARLINK-1296,45412,53.0542,0.0001262,15.06413841,546.2951639569856,548.043111226114,1 45412U 20019BE  25270.89793485  .00005913  00000+0  41535-3 0  9995,2 45412  53.0542 147.4228 0001262 103.3753 256.7377 15.06413841305321
STARLINK-1298,45413,53.0497,0.0010326,15.43729956,428.0770419791261,442.1477646468484,1 45413U 20019BF  25270.81518774  .00102337  00000+0  22064-2 0  9997,2 45413  53.0497 133.9261 0010326 123.4917 236.7076 15.43729956305607
STARLINK-1309,45414,53.0528,0.0001363,15.06405475,546.2508551813171,548.1387006239738,1 45414U 20019BG  25271.04538715  .00012701  00000+0  86987-3 0  9991,2 45414  53.0528 146.7591 0001363  81.3055 278.8088 15.06405475305333
STARLINK-1316,45415,53.0554,0.0001488,15.06401788,546.1755869312128,548.2365690312208,1 45415U 20019BH  25271.07117240  .00001387  00000+0  11202-3 0  9997,2 45415  53.0554 146.6395 0001488 108.6163 251.4988 15.06401788305378
STARLINK-1318,45416,53.0528,6.52e-05,15.56227437,398.1451244512473,399.0288092565261,1 45416U 20019BJ  25270.88936463  .00055382  00000+0  77691-3 0  9990,2 45416  53.0528 127.5192 0000652 184.0528 176.0478 15.56227437305613
STARLINK-1286,45417,53.0523,0.0001255,15.0641566,546.2944374888957,548.0326879301356,1 45417U 20019BK  25270.97627018  .00019824  00000+0  13455-2 0  9992,2 45417  53.0523 177.0702 0001255  80.7812 279.3319 15.06415660305190
STARLINK-1308,45419,53.0528,0.0001375,15.06415287,546.2124768966632,548.1169348657804,1 45419U 20019BM  25270.90624442  .00034955  00000+0  23530-2 0  9992,2 45419  53.0528 177.3836 0001375  91.4283 268.6864 15.06415287304934
